[{"OBJECT_NAME":"NETSAT-3","OBJECT_ID":"2020-068V","EPOCH":"2026-03-09T21:45:04.914432","MEAN_MOTION":15.39054188,"ECCENTRICITY":0.00049805,"INCLINATION":97.8682,"RA_OF_ASC_NODE":67.7818,"ARG_OF_PERICENTER":358.0585,"MEAN_ANOMALY":2.0638,"EPHEMERIS_TYPE":0,"CLASSIFICATION_TYPE":"U","NORAD_CAT_ID":46505,"ELEMENT_SET_NO":999,"REV_AT_EPOCH":30039,"BSTAR":0.00060371861,"MEAN_MOTION_DOT":0.00023315,"MEAN_MOTION_DDOT":0},{"OBJECT_NAME":"STARLINK-30849","OBJECT_ID":"2023-171R","EPOCH":"2026-03-09T22:00:01.999584","MEAN_MOTION":15.23663068,"ECCENTRICITY":0.00015687,"INCLINATION":43.0007,"RA_OF_ASC_NODE":283.6405,"ARG_OF_PERICENTER":288.773,"MEAN_ANOMALY":42.2251,"EPHEMERIS_TYPE":0,"CLASSIFICATION_TYPE":"U","NORAD_CAT_ID":58245,"ELEMENT_SET_NO":999,"REV_AT_EPOCH":577,"BSTAR":0.048301601,"MEAN_MOTION_DOT":0.01296338,"MEAN_MOTION_DDOT":0}]
